[{"OBJECT_NAME":"NEXSAT-1","OBJECT_ID":"2024-024E","EPOCH":"2026-03-09T22:47:24.778176","MEAN_MOTION":15.32166372,"ECCENTRICITY":0.00099795,"INCLINATION":97.3124,"RA_OF_ASC_NODE":144.1918,"ARG_OF_PERICENTER":108.5709,"MEAN_ANOMALY":251.6617,"EPHEMERIS_TYPE":0,"CLASSIFICATION_TYPE":"U","NORAD_CAT_ID":58921,"ELEMENT_SET_NO":999,"REV_AT_EPOCH":11669,"BSTAR":0.00031433612,"MEAN_MOTION_DOT":9.702e-5,"MEAN_MOTION_DDOT":0},{"OBJECT_NAME":"STARLINK-35866","OBJECT_ID":"2025-283A","EPOCH":"2026-03-09T06:50:20.658048","MEAN_MOTION":15.30191624,"ECCENTRICITY":0.00013203,"INCLINATION":53.162,"RA_OF_ASC_NODE":25.9432,"ARG_OF_PERICENTER":118.3683,"MEAN_ANOMALY":241.7451,"EPHEMERIS_TYPE":0,"CLASSIFICATION_TYPE":"U","NORAD_CAT_ID":66878,"ELEMENT_SET_NO":999,"REV_AT_EPOCH":1578,"BSTAR":0.0013245698,"MEAN_MOTION_DOT":0.00039067,"MEAN_MOTION_DDOT":0}]
